{
    "links": {
        "self": "http://www.neowsapp.com/rest/v1/neo/3588847?api_key=iIulBulltgU6a56xZRHN4H3l9WmuAYTsLGpBGhQ2"
    },
    "id": "3588847",
    "neo_reference_id": "3588847",
    "name": "(2011 WF32)",
    "designation": "2011 WF32",
    "nasa_jpl_url": "http://ssd.jpl.nasa.gov/sbdb.cgi?sstr=3588847",
    "absolute_magnitude_h": 22.4,
    "estimated_diameter": {
        "kilometers": {
            "estimated_diameter_min": 0.0880146521,
            "estimated_diameter_max": 0.1968067451
        },
        "meters": {
            "estimated_diameter_min": 88.0146520901,
            "estimated_diameter_max": 196.8067450894
        },
        "miles": {
            "estimated_diameter_min": 0.0546897524,
            "estimated_diameter_max": 0.122290004
        },
        "feet": {
            "estimated_diameter_min": 288.7619911632,
            "estimated_diameter_max": 645.6914415591
        }
    },
    "is_potentially_hazardous_asteroid": false,
    "close_approach_data": [
        {
            "close_approach_date": "2011-12-17",
            "close_approach_date_full": "2011-Dec-17 20:04",
            "epoch_date_close_approach": 1324152240000,
            "relative_velocity": {
                "kilometers_per_second": "8.7389420707",
                "kilometers_per_hour": "31460.1914545136",
                "miles_per_hour": "19548.1395179448"
            },
            "miss_distance": {
                "astronomical": "0.2282327209",
                "lunar": "88.7825284301",
                "kilometers": "34143128.910944483",
                "miles": "21215556.5268325454"
            },
            "orbiting_body": "Earth"
        }
    ],
    "orbital_data": {
        "orbit_id": "5",
        "orbit_determination_date": "2017-04-06 08:51:55",
        "first_observation_date": "2011-11-23",
        "last_observation_date": "2011-11-29",
        "data_arc_in_days": 6,
        "observations_used": 27,
        "orbit_uncertainty": "9",
        "minimum_orbit_intersection": ".215385",
        "jupiter_tisserand_invariant": "3.038",
        "epoch_osculation": "2455890.5",
        "eccentricity": ".5864440564363818",
        "semi_major_axis": "2.738548683569337",
        "inclination": "14.54898456961906",
        "ascending_node_longitude": "57.43103422818208",
        "orbital_period": "1655.309187912609",
        "perihelion_distance": "1.132543084828422",
        "perihelion_argument": "48.23405882486315",
        "aphelion_distance": "4.344554282310253",
        "perihelion_time": "2455936.666847674954",
        "mean_anomaly": "349.9595403176963",
        "mean_motion": ".2174820285109213",
        "equinox": "J2000",
        "orbit_class": {
            "orbit_class_type": "AMO",
            "orbit_class_description": "Near-Earth asteroid orbits similar to that of 1221 Amor",
            "orbit_class_range": "1.017 AU < q (perihelion) < 1.3 AU"
        }
    },
    "is_sentry_object": false
}